{
  "links" : {
    "next" : "https://api.nasa.gov/neo/rest/v1/feed?start_date=2012-09-09&end_date=2012-09-09&detailed=true&api_key=t0TVs3DtDT2H8Oy2Zy8m2eVrNsAVKAexjcZXUckd",
    "prev" : "https://api.nasa.gov/neo/rest/v1/feed?start_date=2012-09-07&end_date=2012-09-07&detailed=true&api_key=t0TVs3DtDT2H8Oy2Zy8m2eVrNsAVKAexjcZXUckd",
    "self" : "https://api.nasa.gov/neo/rest/v1/feed?start_date=2012-09-08&end_date=2012-09-08&detailed=true&api_key=t0TVs3DtDT2H8Oy2Zy8m2eVrNsAVKAexjcZXUckd"
  },
  "element_count" : 7,
  "near_earth_objects" : {
    "2012-09-08" : [ {
      "links" : {
        "self" : "https://api.nasa.gov/neo/rest/v1/neo/3767151?api_key=t0TVs3DtDT2H8Oy2Zy8m2eVrNsAVKAexjcZXUckd"
      },
      "neo_reference_id" : "3767151",
      "name" : "(2017 BB30)",
      "nasa_jpl_url" : "http://ssd.jpl.nasa.gov/sbdb.cgi?sstr=3767151",
      "absolute_magnitude_h" : 25.2,
      "estimated_diameter" : {
        "kilometers" : {
          "estimated_diameter_min" : 0.0242412481,
          "estimated_diameter_max" : 0.0542050786
        },
        "meters" : {
          "estimated_diameter_min" : 24.2412481101,
          "estimated_diameter_max" : 54.2050786336
        },
        "miles" : {
          "estimated_diameter_min" : 0.0150628086,
          "estimated_diameter_max" : 0.0336814639
        },
        "feet" : {
          "estimated_diameter_min" : 79.5316564495,
          "estimated_diameter_max" : 177.8381901842
        }
      },
      "is_potentially_hazardous_asteroid" : false,
      "close_approach_data" : [ {
        "close_approach_date" : "2012-09-08",
        "epoch_date_close_approach" : 1347087600000,
        "relative_velocity" : {
          "kilometers_per_second" : "7.9579738807",
          "kilometers_per_hour" : "28648.7059704812",
          "miles_per_hour" : "17801.1917737137"
        },
        "miss_distance" : {
          "astronomical" : "0.0705782695",
          "lunar" : "27.4549465179",
          "kilometers" : "10558359",
          "miles" : "6560660"
        },
        "orbiting_body" : "Earth"
      } ],
      "orbital_data" : {
        "orbit_id" : "3",
        "orbit_determination_date" : "2017-04-06 08:20:44",
        "orbit_uncertainty" : "5",
        "minimum_orbit_intersection" : ".0098469",
        "jupiter_tisserand_invariant" : "6.151",
        "epoch_osculation" : "2458000.5",
        "eccentricity" : ".1904526839949061",
        "semi_major_axis" : ".9819791256715796",
        "inclination" : "2.989066602343885",
        "ascending_node_longitude" : "303.122178838575",
        "orbital_period" : "355.4281415472465",
        "perihelion_distance" : ".7949585655604561",
        "perihelion_argument" : "293.0555239445385",
        "aphelion_distance" : "1.168999685782703",
        "perihelion_time" : "2457870.862627631037",
        "mean_anomaly" : "131.3048928812045",
        "mean_motion" : "1.012862961364993",
        "equinox" : "J2000"
      }
    } ]
  }
}